FENGYUN 1C DEB          
1 36644U 99025DXN 17344.27136583  .00000334  00000-0  41465-3 0  9995
2 36644  98.4108 144.4583 0299791 249.8445 107.0215 13.53448996219580
